[{"OBJECT_NAME":"STARLINK-3248","OBJECT_ID":"2021-115AA","EPOCH":"2026-03-09T22:38:56.829984","MEAN_MOTION":15.08844075,"ECCENTRICITY":0.00013458,"INCLINATION":53.2178,"RA_OF_ASC_NODE":147.5581,"ARG_OF_PERICENTER":84.2223,"MEAN_ANOMALY":275.8922,"EPHEMERIS_TYPE":0,"CLASSIFICATION_TYPE":"U","NORAD_CAT_ID":49748,"ELEMENT_SET_NO":999,"REV_AT_EPOCH":23558,"BSTAR":-2.0171236e-5,"MEAN_MOTION_DOT":-6.09e-6,"MEAN_MOTION_DDOT":0},{"OBJECT_NAME":"CZ-6A DEB","OBJECT_ID":"2022-151SL","EPOCH":"2026-03-09T10:13:37.626816","MEAN_MOTION":15.13067162,"ECCENTRICITY":0.00442991,"INCLINATION":99.1095,"RA_OF_ASC_NODE":231.9477,"ARG_OF_PERICENTER":182.6933,"MEAN_ANOMALY":177.4061,"EPHEMERIS_TYPE":0,"CLASSIFICATION_TYPE":"U","NORAD_CAT_ID":54947,"ELEMENT_SET_NO":999,"REV_AT_EPOCH":17723,"BSTAR":0.0054047259,"MEAN_MOTION_DOT":0.00099065,"MEAN_MOTION_DDOT":0}]
